[{"OBJECT_NAME":"STARLINK-37158","OBJECT_ID":"2026-059Y","EPOCH":"2026-04-05T14:00:03.000384","MEAN_MOTION":15.80905358,"ECCENTRICITY":0.00011562,"INCLINATION":53.1591,"RA_OF_ASC_NODE":227.9089,"ARG_OF_PERICENTER":56.2082,"MEAN_ANOMALY":168.4459,"EPHEMERIS_TYPE":0,"CLASSIFICATION_TYPE":"U","NORAD_CAT_ID":68343,"ELEMENT_SET_NO":999,"REV_AT_EPOCH":336,"BSTAR":-0.00029112741,"MEAN_MOTION_DOT":-0.0005786,"MEAN_MOTION_DDOT":0},{"OBJECT_NAME":"STARLINK-36380","OBJECT_ID":"2026-059Z","EPOCH":"2026-04-05T14:00:03.000384","MEAN_MOTION":15.80923988,"ECCENTRICITY":0.00012276,"INCLINATION":53.159,"RA_OF_ASC_NODE":227.9268,"ARG_OF_PERICENTER":54.6895,"MEAN_ANOMALY":161.4116,"EPHEMERIS_TYPE":0,"CLASSIFICATION_TYPE":"U","NORAD_CAT_ID":68344,"ELEMENT_SET_NO":999,"REV_AT_EPOCH":336,"BSTAR":-0.00049632719,"MEAN_MOTION_DOT":-0.00097788,"MEAN_MOTION_DDOT":0},{"OBJECT_NAME":"STARLINK-37214","OBJECT_ID":"2026-059AA","EPOCH":"2026-04-05T14:00:03.000384","MEAN_MOTION":15.80905913,"ECCENTRICITY":9.919e-5,"INCLINATION":53.159,"RA_OF_ASC_NODE":227.8911,"ARG_OF_PERICENTER":41.2507,"MEAN_ANOMALY":191.9457,"EPHEMERIS_TYPE":0,"CLASSIFICATION_TYPE":"U","NORAD_CAT_ID":68345,"ELEMENT_SET_NO":999,"REV_AT_EPOCH":336,"BSTAR":-0.00031220117,"MEAN_MOTION_DOT":-0.00061969,"MEAN_MOTION_DDOT":0},{"OBJECT_NAME":"STARLINK-37169","OBJECT_ID":"2026-059AB","EPOCH":"2026-04-05T14:00:03.000384","MEAN_MOTION":15.80884939,"ECCENTRICITY":8.154e-5,"INCLINATION":53.1591,"RA_OF_ASC_NODE":227.8819,"ARG_OF_PERICENTER":72.0446,"MEAN_ANOMALY":165.4298,"EPHEMERIS_TYPE":0,"CLASSIFICATION_TYPE":"U","NORAD_CAT_ID":68346,"ELEMENT_SET_NO":999,"REV_AT_EPOCH":336,"BSTAR":-0.00014021912,"MEAN_MOTION_DOT":-0.00028297,"MEAN_MOTION_DDOT":0},{"OBJECT_NAME":"STARLINK-37136","OBJECT_ID":"2026-059AC","EPOCH":"2026-04-05T14:00:03.000384","MEAN_MOTION":15.80917163,"ECCENTRICITY":9.926e-5,"INCLINATION":53.1587,"RA_OF_ASC_NODE":227.8731,"ARG_OF_PERICENTER":66.9497,"MEAN_ANOMALY":174.7846,"EPHEMERIS_TYPE":0,"CLASSIFICATION_TYPE":"U","NORAD_CAT_ID":68347,"ELEMENT_SET_NO":999,"REV_AT_EPOCH":336,"BSTAR":-0.00046909579,"MEAN_MOTION_DOT":-0.00092485,"MEAN_MOTION_DDOT":0},{"OBJECT_NAME":"STARLINK-37182","OBJECT_ID":"2026-059AD","EPOCH":"2026-04-05T14:00:03.000384","MEAN_MOTION":15.80883393,"ECCENTRICITY":0.00011523,"INCLINATION":53.1592,"RA_OF_ASC_NODE":227.8997,"ARG_OF_PERICENTER":66.4466,"MEAN_ANOMALY":162.4818,"EPHEMERIS_TYPE":0,"CLASSIFICATION_TYPE":"U","NORAD_CAT_ID":68348,"ELEMENT_SET_NO":999,"REV_AT_EPOCH":336,"BSTAR":-0.00012451994,"MEAN_MOTION_DOT":-0.00025215,"MEAN_MOTION_DDOT":0},{"OBJECT_NAME":"STARLINK-37183","OBJECT_ID":"2026-059AE","EPOCH":"2026-04-05T14:00:03.000384","MEAN_MOTION":15.80939122,"ECCENTRICITY":6.036e-5,"INCLINATION":53.1591,"RA_OF_ASC_NODE":227.8645,"ARG_OF_PERICENTER":126.4051,"MEAN_ANOMALY":119.6015,"EPHEMERIS_TYPE":0,"CLASSIFICATION_TYPE":"U","NORAD_CAT_ID":68349,"ELEMENT_SET_NO":999,"REV_AT_EPOCH":336,"BSTAR":-0.00072066321,"MEAN_MOTION_DOT":-0.00141058,"MEAN_MOTION_DDOT":0},{"OBJECT_NAME":"CENTISPACE-1 OBJECT A","OBJECT_ID":"2026-060A","EPOCH":"2026-04-05T14:21:49.752864","MEAN_MOTION":14.74653892,"ECCENTRICITY":0.00126329,"INCLINATION":54.9818,"RA_OF_ASC_NODE":331.8534,"ARG_OF_PERICENTER":325.9082,"MEAN_ANOMALY":34.1105,"EPHEMERIS_TYPE":0,"CLASSIFICATION_TYPE":"U","NORAD_CAT_ID":68350,"ELEMENT_SET_NO":999,"REV_AT_EPOCH":206,"BSTAR":-0.0026357362,"MEAN_MOTION_DOT":-0.00017906,"MEAN_MOTION_DDOT":0},{"OBJECT_NAME":"CENTISPACE-1 OBJECT B","OBJECT_ID":"2026-060B","EPOCH":"2026-04-04T18:49:36.793632","MEAN_MOTION":14.74944202,"ECCENTRICITY":0.00135305,"INCLINATION":54.982,"RA_OF_ASC_NODE":335.1667,"ARG_OF_PERICENTER":326.88,"MEAN_ANOMALY":33.1351,"EPHEMERIS_TYPE":0,"CLASSIFICATION_TYPE":"U","NORAD_CAT_ID":68351,"ELEMENT_SET_NO":999,"REV_AT_EPOCH":194,"BSTAR":0.00035156248,"MEAN_MOTION_DOT":2.174e-5,"MEAN_MOTION_DDOT":0},{"OBJECT_NAME":"CENTISPACE-1 OBJECT C","OBJECT_ID":"2026-060C","EPOCH":"2026-04-05T06:10:25.542912","MEAN_MOTION":14.75018319,"ECCENTRICITY":0.0012502,"INCLINATION":54.9853,"RA_OF_ASC_NODE":333.2248,"ARG_OF_PERICENTER":336.1708,"MEAN_ANOMALY":23.8711,"EPHEMERIS_TYPE":0,"CLASSIFICATION_TYPE":"U","NORAD_CAT_ID":68352,"ELEMENT_SET_NO":999,"REV_AT_EPOCH":201,"BSTAR":4.511e-5,"MEAN_MOTION_DOT":9.7e-7,"MEAN_MOTION_DDOT":0},{"OBJECT_NAME":"CENTISPACE-1 OBJECT D","OBJECT_ID":"2026-060D","EPOCH":"2026-04-04T18:47:20.874336","MEAN_MOTION":14.7500838,"ECCENTRICITY":0.00119603,"INCLINATION":54.9868,"RA_OF_ASC_NODE":335.1678,"ARG_OF_PERICENTER":335.0245,"MEAN_ANOMALY":25.0175,"EPHEMERIS_TYPE":0,"CLASSIFICATION_TYPE":"U","NORAD_CAT_ID":68353,"ELEMENT_SET_NO":999,"REV_AT_EPOCH":194,"BSTAR":4.831664e-5,"MEAN_MOTION_DOT":1.18e-6,"MEAN_MOTION_DDOT":0},{"OBJECT_NAME":"CENTISPACE-1 OBJECT E","OBJECT_ID":"2026-060E","EPOCH":"2026-04-05T14:17:13.933824","MEAN_MOTION":14.74995603,"ECCENTRICITY":0.00131575,"INCLINATION":54.9776,"RA_OF_ASC_NODE":331.829,"ARG_OF_PERICENTER":336.0153,"MEAN_ANOMALY":24.0232,"EPHEMERIS_TYPE":0,"CLASSIFICATION_TYPE":"U","NORAD_CAT_ID":68354,"ELEMENT_SET_NO":999,"REV_AT_EPOCH":206,"BSTAR":4.307697e-5,"MEAN_MOTION_DOT":8.2e-7,"MEAN_MOTION_DDOT":0},{"OBJECT_NAME":"CENTISPACE-1 OBJECT F","OBJECT_ID":"2026-060F","EPOCH":"2026-04-05T11:02:01.764096","MEAN_MOTION":14.75074133,"ECCENTRICITY":0.00134456,"INCLINATION":54.9764,"RA_OF_ASC_NODE":332.3834,"ARG_OF_PERICENTER":333.1762,"MEAN_ANOMALY":26.854,"EPHEMERIS_TYPE":0,"CLASSIFICATION_TYPE":"U","NORAD_CAT_ID":68355,"ELEMENT_SET_NO":999,"REV_AT_EPOCH":204,"BSTAR":4.2287698e-5,"MEAN_MOTION_DOT":7.7e-7,"MEAN_MOTION_DDOT":0},{"OBJECT_NAME":"CENTISPACE-1 OBJECT G","OBJECT_ID":"2026-060G","EPOCH":"2026-04-04T15:29:48.717600","MEAN_MOTION":14.75216843,"ECCENTRICITY":0.0014233,"INCLINATION":54.9929,"RA_OF_ASC_NODE":335.7064,"ARG_OF_PERICENTER":337.97,"MEAN_ANOMALY":22.0687,"EPHEMERIS_TYPE":0,"CLASSIFICATION_TYPE":"U","NORAD_CAT_ID":68356,"ELEMENT_SET_NO":999,"REV_AT_EPOCH":192,"BSTAR":4.9346e-5,"MEAN_MOTION_DOT":1.26e-6,"MEAN_MOTION_DDOT":0},{"OBJECT_NAME":"CENTISPACE-1 OBJECT H","OBJECT_ID":"2026-060H","EPOCH":"2026-04-02T09:49:01.049088","MEAN_MOTION":14.75277593,"ECCENTRICITY":0.00138214,"INCLINATION":54.9838,"RA_OF_ASC_NODE":344.8287,"ARG_OF_PERICENTER":328.1926,"MEAN_ANOMALY":31.8237,"EPHEMERIS_TYPE":0,"CLASSIFICATION_TYPE":"U","NORAD_CAT_ID":68357,"ELEMENT_SET_NO":999,"REV_AT_EPOCH":159,"BSTAR":4.8805088e-5,"MEAN_MOTION_DOT":1.23e-6,"MEAN_MOTION_DDOT":0},{"OBJECT_NAME":"CENTISPACE-1 OBJECT J","OBJECT_ID":"2026-060J","EPOCH":"2026-04-05T14:14:29.645952","MEAN_MOTION":14.7529158,"ECCENTRICITY":0.0014717,"INCLINATION":54.9827,"RA_OF_ASC_NODE":331.8217,"ARG_OF_PERICENTER":335.2187,"MEAN_ANOMALY":24.8104,"EPHEMERIS_TYPE":0,"CLASSIFICATION_TYPE":"U","NORAD_CAT_ID":68358,"ELEMENT_SET_NO":999,"REV_AT_EPOCH":206,"BSTAR":4.3713751e-5,"MEAN_MOTION_DOT":8.8e-7,"MEAN_MOTION_DDOT":0}]
