STARLINK-37158          
1 68343U 26059Y   26095.58336806 -.00057860  00000+0 -29113-3 0  9993
2 68343  53.1591 227.9089 0001156  56.2082 168.4459 15.80905358  3366
STARLINK-36380          
1 68344U 26059Z   26095.58336806 -.00097788  00000+0 -49633-3 0  9996
2 68344  53.1590 227.9268 0001227  54.6895 161.4116 15.80923988  3360
STARLINK-37214          
1 68345U 26059AA  26095.58336806 -.00061969  00000+0 -31220-3 0  9992
2 68345  53.1590 227.8911 0000991  41.2507 191.9457 15.80905913  3368
STARLINK-37169          
1 68346U 26059AB  26095.58336806 -.00028297  00000+0 -14022-3 0  9991
2 68346  53.1591 227.8819 0000815  72.0446 165.4298 15.80884939  3369
STARLINK-37136          
1 68347U 26059AC  26095.58336806 -.00092485  00000+0 -46910-3 0  9993
2 68347  53.1587 227.8731 0000992  66.9497 174.7846 15.80917163  3360
STARLINK-37182          
1 68348U 26059AD  26095.58336806 -.00025215  00000+0 -12452-3 0  9995
2 68348  53.1592 227.8997 0001152  66.4466 162.4818 15.80883393  3361
STARLINK-37183          
1 68349U 26059AE  26095.58336806 -.00141058  00000+0 -72066-3 0  9997
2 68349  53.1591 227.8645 0000603 126.4051 119.6015 15.80939122  3363
CENTISPACE-1 OBJECT A   
1 68350U 26060A   26095.59849251 -.00017906  00000+0 -26357-2 0  9990
2 68350  54.9818 331.8534 0012632 325.9082  34.1105 14.74653892  2060
CENTISPACE-1 OBJECT B   
1 68351U 26060B   26094.78445363  .00002174  00000+0  35156-3 0  9994
2 68351  54.9820 335.1667 0013530 326.8800  33.1351 14.74944202  1940
CENTISPACE-1 OBJECT C   
1 68352U 26060C   26095.25724008  .00000097  00000+0  45110-4 0  9998
2 68352  54.9853 333.2248 0012502 336.1708  23.8711 14.75018319  2017
CENTISPACE-1 OBJECT D   
1 68353U 26060D   26094.78288049  .00000118  00000+0  48317-4 0  9992
2 68353  54.9868 335.1678 0011960 335.0245  25.0175 14.75008380  1949
CENTISPACE-1 OBJECT E   
1 68354U 26060E   26095.59530016  .00000082  00000+0  43077-4 0  9995
2 68354  54.9776 331.8290 0013157 336.0153  24.0232 14.74995603  2069
CENTISPACE-1 OBJECT F   
1 68355U 26060F   26095.45974264  .00000077  00000+0  42288-4 0  9995
2 68355  54.9764 332.3834 0013445 333.1762  26.8540 14.75074133  2048
CENTISPACE-1 OBJECT G   
1 68356U 26060G   26094.64570275  .00000126  00000+0  49346-4 0  9997
2 68356  54.9929 335.7064 0014233 337.9700  22.0687 14.75216843  1926
CENTISPACE-1 OBJECT H   
1 68357U 26060H   26092.40903992  .00000123  00000+0  48805-4 0  9992
2 68357  54.9838 344.8287 0013821 328.1926  31.8237 14.75277593  1599
CENTISPACE-1 OBJECT J   
1 68358U 26060J   26095.59339868  .00000088  00000+0  43714-4 0  9995
2 68358  54.9827 331.8217 0014717 335.2187  24.8104 14.75291580  2060
